QZS-1R                  
1 49336U 21096A   24140.83645271 -.00000218  00000+0  00000+0 0  9990
2 49336  35.8885  90.9570 0754538 270.9860 312.2885  1.00269532  9408
